     2.100          NAVIGATION                              RINEX VERSION / TYPE
fic2rin                                 10/23/2013 00:35:25 PGM / RUN BY / DATE
                                                            END OF HEADER
 2 13 10 22 12  0  0.0  .457080081105D-03  .181898940355D-11  .000000000000D+00
     .108000000000D+03 -.107812500000D+02  .550880089224D-08  .348293825779D+00
    -.486150383949D-06  .126728111645D-01  .530295073986D-05  .515373704720D+04
     .216000000000D+06  .372529029846D-07  .216361075942D+01  .238418579102D-06
     .938756428870D+00  .266812500000D+03 -.254827017293D+01 -.865357474184D-08
    -.223580741607D-09  .100000000000D+01  .176300000000D+04  .000000000000D+00
     .240000000000D+01  .000000000000D+00 -.172294676304D-07  .108000000000D+03
     .208806000000D+06  .400000000000D+01
 3 13 10 22 12  0  0.0  .275957398117D-03  .500222085975D-11  .000000000000D+00
     .450000000000D+02  .393750000000D+01  .526343352885D-08  .509476450082D+00
     .366941094398D-06  .167241037125D-01  .956840813160D-05  .515373348236D+04
     .216000000000D+06 -.245869159698D-06  .991333894819D+00 -.111758708954D-07
     .935817312342D+00  .186187500000D+03  .134492247171D+01 -.856392815055D-08
     .315727437029D-09  .100000000000D+01  .176300000000D+04  .000000000000D+00
     .240000000000D+01  .000000000000D+00 -.465661287308D-08  .450000000000D+02
     .208806000000D+06  .400000000000D+01
 4 13 10 22 12  0  0.0  .235764309764D-05  .454747350886D-12  .000000000000D+00
     .250000000000D+02 -.174375000000D+02  .537950979246D-08 -.264843860518D+01
    -.959262251854D-06  .106484035496D-01  .523775815964D-05  .515361719131D+04
     .216000000000D+06  .152736902237D-06  .217988718743D+01 -.707805156708D-07
     .937800799579D+00  .265343750000D+03  .104114818062D+01 -.829963142725D-08
    -.117862052285D-09  .100000000000D+01  .176300000000D+04  .000000000000D+00
     .240000000000D+01  .000000000000D+00 -.605359673500D-08  .250000000000D+02
     .208806000000D+06  .400000000000D+01
 6 13 10 22 12  0  0.0  .114182475954D-03  .179625203600D-10  .000000000000D+00
     .380000000000D+02  .122500000000D+02  .502556647787D-08  .233555313595D+01
     .752508640289D-06  .817007815931D-02  .911951065063D-05  .515368178558D+04
     .216000000000D+06 -.614672899246D-07  .107192405639D+01  .189989805222D-06
     .942306685279D+00  .193093750000D+03 -.211729006974D+00 -.814676791701D-08
     .386444668400D-09  .100000000000D+01  .176300000000D+04  .000000000000D+00
     .240000000000D+01  .000000000000D+00 -.512227416039D-08  .380000000000D+02
     .208806000000D+06  .400000000000D+01
 7 13 10 22 12  0  0.0  .272295903414D-03  .420641299570D-11  .000000000000D+00
     .720000000000D+02 -.316250000000D+02  .446554315065D-08 -.104285979623D+01
    -.164471566677D-05  .700133712962D-02  .179372727871D-05  .515366335297D+04
     .216000000000D+06  .894069671631D-07 -.934014289216D+00 -.707805156708D-07
     .974635537825D+00  .348593750000D+03 -.285406783040D+01 -.832998983466D-08
     .535736601294D-11  .100000000000D+01  .176300000000D+04  .000000000000D+00
     .240000000000D+01  .000000000000D+00 -.107102096081D-07  .720000000000D+02
     .208806000000D+06  .400000000000D+01
 8 13 10 22 12  0  0.0  .930763781071D-05  .341060513165D-12  .000000000000D+00
     .420000000000D+02 -.484687500000D+02  .392016329054D-08 -.161224734254D+01
    -.274367630482D-05  .134943176527D-01  .249408185482D-05  .515367977142D+04
     .216000000000D+06  .633299350739D-07 -.839445807887D+00 -.147148966789D-06
     .997646377553D+00  .347093750000D+03 -.281724224709D+01 -.798033241288D-08
     .764317551180D-10  .100000000000D+01  .176300000000D+04  .000000000000D+00
     .340000000000D+01  .000000000000D+00 -.372529029846D-08  .420000000000D+02
     .208806000000D+06  .400000000000D+01
 9 13 10 22 12  0  0.0  .277386978269D-03  .272848410532D-11  .000000000000D+00
     .590000000000D+02 -.221562500000D+02  .435053836024D-08  .136366163307D+00
    -.137276947498D-05  .168284864631D-01  .247359275818D-05  .515370937538D+04
     .216000000000D+06 -.238418579102D-06 -.956134273276D+00 -.134110450745D-06
     .983206984049D+00  .345406250000D+03  .173650978394D+01 -.852035490698D-08
    -.582167106740D-10  .100000000000D+01  .176300000000D+04  .000000000000D+00
     .240000000000D+01  .000000000000D+00 -.558793544769D-08  .590000000000D+02
     .208806000000D+06  .400000000000D+01
10 13 10 22 12  0  0.0 -.988719984889D-04 -.125055521494D-11  .000000000000D+00
     .280000000000D+02  .166250000000D+02  .458519099161D-08  .286886004024D+01
     .802800059319D-06  .129886186915D-01  .109355896711D-04  .515367356110D+04
     .216000000000D+06  .409781932831D-07 -.303510575819D+01 -.156462192535D-06
     .943355141111D+00  .157781250000D+03  .825482763916D+00 -.777639534665D-08
    -.405374028313D-09  .100000000000D+01  .176300000000D+04  .000000000000D+00
     .240000000000D+01  .000000000000D+00 -.232830643654D-08  .280000000000D+02
     .208806000000D+06  .400000000000D+01
12 13 10 22 12  0  0.0  .163564458489D-03  .227373675443D-11  .000000000000D+00
     .880000000000D+02 -.893750000000D+02  .390623413890D-08 -.134961993238D+01
    -.463612377644D-05  .453413417563D-02  .916607677937D-05  .515374541283D+04
     .216000000000D+06  .745058059692D-07  .125971641739D+00 -.912696123123D-07
     .985934562623D+00  .217875000000D+03  .332721544125D+00 -.768424865123D-08
     .239295681911D-10  .100000000000D+01  .176300000000D+04  .000000000000D+00
     .340000000000D+01  .000000000000D+00 -.116415321827D-07  .880000000000D+02
     .208806000000D+06  .400000000000D+01
13 13 10 22 12  0  0.0  .675679184496D-04 -.386535248253D-11  .000000000000D+00
     .230000000000D+02  .113218750000D+03  .398016578988D-08  .130347228105D+01
     .582076609135D-05  .502641429193D-02  .595673918724D-05  .515369165039D+04
     .216000000000D+06  .162050127983D-06 -.190050887372D+01 -.502914190292D-07
     .979753736664D+00  .273312500000D+03  .220349832681D+01 -.794425948172D-08
     .318584698903D-09  .100000000000D+01  .176300000000D+04  .000000000000D+00
     .240000000000D+01  .000000000000D+00 -.107102096081D-07  .230000000000D+02
     .208806000000D+06  .400000000000D+01
15 13 10 22 12  0  0.0 -.143235549331D-03 -.193267624127D-11  .000000000000D+00
     .580000000000D+02  .111000000000D+03  .485377360772D-08  .108712092108D+01
     .585988163948D-05  .569647224620D-02  .699609518051D-05  .515359042358D+04
     .216000000000D+06 -.745058059692D-08 -.203568371847D+01  .856816768646D-07
     .939077754438D+00  .230750000000D+03  .167388887482D+00 -.833891877801D-08
     .156792245312D-09  .100000000000D+01  .176300000000D+04  .000000000000D+00
     .240000000000D+01  .000000000000D+00 -.977888703346D-08  .580000000000D+02
     .208806000000D+06  .400000000000D+01
16 13 10 22 12  0  0.0 -.243857968599D-03  .102318153949D-11  .000000000000D+00
     .129000000000D+03 -.862187500000D+02  .383551690753D-08  .276430001861D+01
    -.442937016487D-05  .709962542169D-02  .985898077488D-05  .515373702240D+04
     .216000000000D+06 -.143423676491D-06  .144412307832D+00 -.745058059692D-08
     .986586684690D+00  .203531250000D+03  .134647031218D+00 -.754281418849D-08
    -.117862052285D-10  .100000000000D+01  .176300000000D+04  .000000000000D+00
     .340000000000D+01  .000000000000D+00 -.977888703346D-08  .129000000000D+03
     .208806000000D+06  .400000000000D+01
17 13 10 22 12  0  0.0 -.334689393640D-04 -.375166564481D-11  .000000000000D+00
     .440000000000D+02  .512500000000D+01  .445768568050D-08  .181231064722D+01
     .193715095520D-06  .861190771684D-02  .912696123123D-05  .515369530869D+04
     .216000000000D+06 -.214204192162D-06  .117898539290D+01 -.856816768646D-07
     .966366645004D+00  .208625000000D+03 -.218788238876D+01 -.792104422900D-08
     .481805783431D-09  .100000000000D+01  .176300000000D+04  .000000000000D+00
     .240000000000D+01  .000000000000D+00 -.102445483208D-07  .440000000000D+02
     .208806000000D+06  .400000000000D+01
18 13 10 22 12  0  0.0  .280734617263D-03  .204636307899D-11  .000000000000D+00
     .200000000000D+02  .790625000000D+01  .490699011012D-08 -.294673227557D+01
     .398606061935D-06  .145738524152D-01  .102948397398D-04  .515364757729D+04
     .216000000000D+06  .856816768646D-07 -.305425325802D+01 -.134110450745D-06
     .927118523488D+00  .159843750000D+03 -.207486926659D+01 -.790604360416D-08
    -.326442169055D-09  .100000000000D+01  .176300000000D+04  .000000000000D+00
     .240000000000D+01  .000000000000D+00 -.107102096081D-07  .200000000000D+02
     .208806000000D+06  .400000000000D+01
20 13 10 22 12  0  0.0  .131196808070D-03  .284217094304D-11  .000000000000D+00
     .910000000000D+02  .981250000000D+01  .502020911186D-08 -.246729788545D+01
     .536441802979D-06  .568986264989D-02  .100303441286D-04  .515365860939D+04
     .216000000000D+06  .726431608200D-07 -.310750925024D+01 -.186264514923D-07
     .927970649862D+00  .168687500000D+03  .128826815297D+01 -.805676416800D-08
    -.413588656199D-09  .100000000000D+01  .176300000000D+04  .000000000000D+00
     .240000000000D+01  .000000000000D+00 -.791624188423D-08  .910000000000D+02
     .208806000000D+06  .400000000000D+01
21 13 10 22 12  0  0.0 -.324791297317D-03 -.181898940355D-11  .000000000000D+00
     .900000000000D+01 -.132500000000D+02  .536665211403D-08 -.192578697461D+01
    -.728294253349D-06  .206279912964D-01  .478141009808D-05  .515360778999D+04
     .216000000000D+06  .307336449623D-06  .218257998074D+01 -.875443220139D-07
     .931650681733D+00  .265843750000D+03 -.209657492299D+01 -.820034157714D-08
    -.389301930274D-10  .100000000000D+01  .176300000000D+04  .000000000000D+00
     .240000000000D+01  .000000000000D+00 -.111758708954D-07  .900000000000D+01
     .208806000000D+06  .400000000000D+01
